"First Name","Last Name",City,State,Zip,Email,Phone,CDL-A,Experience,Submitted
Brody,Turner,"South Audieport",WV,80847,samantha26@example.org,555-555-5555,Yes,No,"2019-09-13 21:06:11"
Magdalen,Welch,"East Vicentaborough",VT,28519,cbeer@example.org,555-555-5555,Yes,No,"2019-09-13 21:06:11"
Reyes,Rogahn,"North Maudieshire",AK,65143,keeling.suzanne@example.org,555-555-5555,No,No,"2019-09-13 21:06:15"
Curt,Kessler,Camronland,CO,77463,friesen.elnora@example.org,555-555-5555,No,No,"2019-09-13 21:06:16"
Donna,Langosh,Shanahanberg,OH,70324,fpacocha@example.net,555-555-5555,Yes,Yes,"2019-09-13 21:06:21"
Brooks,Murazik,Chadtown,MO,32519,jerdman@example.net,555-555-5555,No,Yes,"2019-09-13 21:06:21"
Layne,Kovacek,"New Reese",DC,38869,bwehner@example.net,555-555-5555,No,No,"2019-09-13 21:06:25"
Raoul,Trantow,Bertramside,GA,28490,hermiston.cornelius@example.net,555-555-5555,No,No,"2019-09-13 21:06:26"
Emma,McCullough,Marvinmouth,MS,95427,berge.reuben@example.net,555-555-5555,No,No,"2019-09-13 21:20:54"
Adalberto,Ledner,"Lake Aaronview",CT,15080,yconn@example.net,555-555-5555,No,Yes,"2019-09-13 21:22:43"
Brandi,O'Conner,"North Rolando",GA,25022,carter.hank@example.org,555-555-5555,Yes,Yes,"2019-09-13 21:23:06"
Jany,Ankunding,"North Tessfort",NM,73195,stiedemann.kenyatta@example.org,555-555-5555,No,Yes,"2019-09-13 21:25:26"
Hayden,Leuschke,Collinsport,LA,83691,mayer.aurore@example.net,555-555-5555,Yes,No,"2019-09-13 21:25:26"
Koby,Ebert,"Port Baileyside",LA,56051,kennith58@example.com,555-555-5555,Yes,No,"2019-09-13 21:25:26"
Dusty,Ferry,Stiedemannmouth,ME,17886,lroberts@example.com,555-555-5555,No,Yes,"2019-09-13 21:25:26"
Alice,Corwin,"Port Nelda",WV,17590,ccorkery@example.net,555-555-5555,No,No,"2019-09-16 14:04:16"
Cassandra,Erdman,Christiansenland,AR,10247,bradtke.stuart@example.net,555-555-5555,Yes,No,"2019-09-16 14:04:16"
Alena,Hettinger,Kihnborough,ID,31746,stracke.meredith@example.org,555-555-5555,Yes,Yes,"2019-09-16 14:04:16"
Evalyn,Stanton,Gerholdhaven,MI,19359,qrosenbaum@example.com,555-555-5555,Yes,No,"2019-09-16 14:04:16"
Kayden,Breitenberg,Schoenberg,NH,09800,maude.prohaska@example.org,555-555-5555,No,No,"2019-09-16 14:04:40"
Antonina,Runolfsdottir,Preciousstad,IA,13996,jbernhard@example.com,555-555-5555,Yes,Yes,"2019-09-16 14:04:40"
Anais,Bayer,"Port Brock",AR,41275,arch.denesik@example.net,555-555-5555,Yes,Yes,"2019-09-16 14:04:40"
Krista,Swaniawski,"Lake Manuelashire",FL,72078,dnader@example.com,555-555-5555,Yes,Yes,"2019-09-16 14:04:40"
